GSAT0101 (PRN E11)      
1 37846U 11060A   23214.44803363 -.00000080  00000+0  00000+0 0  9996
2 37846  57.1051  10.1879 0002924  66.6805 293.3513  1.70475807 73356
GSAT0102 (PRN E12)      
1 37847U 11060B   23210.85747266 -.00000067  00000+0  00000+0 0  9992
2 37847  57.1054  10.2851 0002137  21.9041 340.8720  1.70475266 73293
GSAT0103 (PRN E19)      
1 38857U 12055A   23210.38093310 -.00000004  00000+0  00000+0 0  9992
2 38857  55.2703 130.5099 0004062 273.4664  86.4802  1.70473615 67180
GSAT0104 (PRN E20)      
1 38858U 12055B   23212.11019728 -.00000010  00000+0  00000+0 0  9994
2 38858  55.2708 130.4639 0001581 277.8901  82.0880  1.70473885 67187
GSAT0201 (PRN E18)      
1 40128U 14050A   23212.30831881 -.00000069  00000+0  00000+0 0  9991
2 40128  49.9672 315.9689 1610413 139.0369 234.2791  1.85519013 60740
GSAT0202 (PRN E14)      
1 40129U 14050B   23208.79487664 -.00000078  00000+0  00000+0 0  9996
2 40129  49.9900 315.1803 1608285 139.7148 233.4140  1.85519682 60900
GSAT0203 (PRN E26)      
1 40544U 15017A   23214.22756056 -.00000080  00000+0  00000+0 0  9993
2 40544  56.9003  10.1714 0002016 216.1821 143.8060  1.70475952 51969
GSAT0204 (PRN E22)      
1 40545U 15017B   23212.13476929 -.00000071  00000+0  00000+0 0  9990
2 40545  56.9064  10.2425 0002394 192.8475 167.1552  1.70475544 51930
GSAT0205 (PRN E24)      
1 40889U 15045A   23211.90277271  .00000071  00000+0  00000+0 0  9994
2 40889  55.3803 250.6767 0003083   0.7123 359.3833  1.70473574 49077
GSAT0206 (PRN E30)      
1 40890U 15045B   23213.29663290  .00000063  00000+0  00000+0 0  9991
2 40890  55.3788 250.6334 0001836 324.1230  35.9553  1.70473537 49128
GSAT0209 (PRN E09)      
1 41174U 15079A   23214.05478347 -.00000009  00000+0  00000+0 0  9997
2 41174  55.2890 130.1154 0004087 319.4928  40.4847  1.70473786 47458
GSAT0208 (PRN E08)      
1 41175U 15079B   23208.40851929  .00000006  00000+0  00000+0 0  9997
2 41175  55.2851 130.2689 0003482 318.9010  41.0701  1.70473809 47197
GSAT0211 (PRN E02)      
1 41549U 16030A   23213.80888361  .00000060  00000+0  00000+0 0  9990
2 41549  55.5259 250.5959 0003739 305.4090  54.6438  1.70473657 44743
GSAT0210 (PRN E01)      
1 41550U 16030B   23211.16751926  .00000073  00000+0  00000+0 0  9999
2 41550  55.5262 250.6700 0004113 269.6119  90.4363  1.70473817 44691
GSAT0207 (PRN E07)      
1 41859U 16069A   23212.00229430 -.00000010  00000+0  00000+0 0  9999
2 41859  54.9509 130.2524 0004220 303.4559  56.4996  1.70473778 41687
GSAT0212 (PRN E03)      
1 41860U 16069B   23212.44358446 -.00000010  00000+0  00000+0 0  9999
2 41860  54.9486 130.2372 0003075 333.5701  26.4119  1.70473968 41724
GSAT0213 (PRN E04)      
1 41861U 16069C   23213.39597762 -.00000010  00000+0  00000+0 0  9991
2 41861  54.9512 130.2168 0004068 281.4698  78.4876  1.70472634 41734
GSAT0214 (PRN E05)      
1 41862U 16069D   23214.12978067 -.00000009  00000+0  00000+0 0  9993
2 41862  54.9497 130.1904 0003168 287.1765  72.7969  1.70472516 41742
GSAT0215 (PRN E21)      
1 43055U 17079A   23209.92632489  .00000071  00000+0  00000+0 0  9996
2 43055  55.5043 250.5295 0004281 266.2443  93.7991  1.70474238 35014
GSAT0216 (PRN E25)      
1 43056U 17079B   23213.73775815  .00000061  00000+0  00000+0 0  9991
2 43056  55.5022 250.4242 0005025 270.2614  89.7689  1.70474489 35067
GSAT0217 (PRN E27)      
1 43057U 17079C   23212.19836611  .00000071  00000+0  00000+0 0  9994
2 43057  55.5014 250.4659 0004628 281.9472  78.0955  1.70474329 35059
GSAT0218 (PRN E31)      
1 43058U 17079D   23212.41841644  .00000069  00000+0  00000+0 0  9999
2 43058  55.5014 250.4573 0006091 269.2394  90.7849  1.70474318 35054
GSAT0221 (PRN E15)      
1 43564U 18060A   23212.31795902 -.00000071  00000+0  00000+0 0  9990
2 43564  57.2808  10.1426 0001605 264.6562  95.3333  1.70475803 31242
GSAT0222 (PRN E33)      
1 43565U 18060B   23209.60308336 -.00000064  00000+0  00000+0 0  9992
2 43565  57.2836  10.2164 0001790 200.7548 159.2542  1.70475645 31239
GSAT0219 (PRN E36)      
1 43566U 18060C   23209.82546737 -.00000064  00000+0  00000+0 0  9996
2 43566  57.2831  10.2129 0000736 295.2982  64.7099  1.70475855 31214
GSAT0220 (PRN E13)      
1 43567U 18060D   23213.56534720 -.00000077  00000+0  00000+0 0  9996
2 43567  57.2833  10.1125 0000953 263.8186  96.1739  1.70475429 31251
GSAT0223 (PRN E34)      
1 49809U 21116A   23212.81076728 -.00000073  00000+0  00000+0 0  9999
2 49809  57.2749  10.0292 0002896 150.4398 196.7081  1.70475625 10252
GSAT0224 (PRN E10)      
1 49810U 21116B   23213.82808242 -.00000078  00000+0  00000+0 0  9992
2 49810  57.2742   9.9996 0002930 137.0518 226.9275  1.70475632 10292
